{
  "type": "FeatureCollection",
  "features": [
    {
      "type": "Feature",
      "properties": {
        "norad_id": 67045,
        "name": "STARLINK-35891",
        "group": "last-30-days",
        "lat": -31.175650234151266,
        "lon": 92.94877416783979,
        "alt_km": 310.662127162067,
        "timestamp": "2025-12-20T16:47:35.026779+00:00",
        "meta_object_name": "STARLINK-35891",
        "meta_object_id": "2025-294R",
        "meta_epoch": "2025-12-20T12:00:02.000160",
        "meta_mean_motion": 15.88335594,
        "meta_eccentricity": 0.0001567,
        "meta_inclination": 43.0001,
        "meta_ra_of_asc_node": 134.6731,
        "meta_arg_of_pericenter": 264.231,
        "meta_mean_anomaly": 343.4161,
        "meta_ephemeris_type": 0,
        "meta_classification_type": "U",
        "meta_norad_cat_id": 67045,
        "meta_element_set_no": 999,
        "meta_rev_at_epoch": 147,
        "meta_bstar": -0.0058313,
        "meta_mean_motion_dot": -0.01449595,
        "meta_mean_motion_ddot": 0,
        "tle_line1": "1 67045U 25294R   25354.50002315 -.01449595  00000+0 -58313-2 0  9999",
        "tle_line2": "2 67045  43.0001 134.6731 0001567 264.2310 343.4161 15.88335594  1479"
      },
      "geometry": {
        "type": "Point",
        "coordinates": [
          92.94877416783979,
          -31.175650234151266
        ]
      }
    },
    {
      "type": "Feature",
      "properties": {
        "norad_id": 67046,
        "name": "STARLINK-35721",
        "group": "last-30-days",
        "lat": -29.99878634264676,
        "lon": 95.14885912439465,
        "alt_km": 310.5505164104161,
        "timestamp": "2025-12-20T16:47:35.026790+00:00",
        "meta_object_name": "STARLINK-35721",
        "meta_object_id": "2025-294S",
        "meta_epoch": "2025-12-20T12:00:02.000160",
        "meta_mean_motion": 15.88369491,
        "meta_eccentricity": 0.0001554,
        "meta_inclination": 43.0003,
        "meta_ra_of_asc_node": 134.6676,
        "meta_arg_of_pericenter": 263.1828,
        "meta_mean_anomaly": 346.6758,
        "meta_ephemeris_type": 0,
        "meta_classification_type": "U",
        "meta_norad_cat_id": 67046,
        "meta_element_set_no": 999,
        "meta_rev_at_epoch": 155,
        "meta_bstar": -0.0058271,
        "meta_mean_motion_dot": -0.01450821,
        "meta_mean_motion_ddot": 0,
        "tle_line1": "1 67046U 25294S   25354.50002315 -.01450821  00000+0 -58271-2 0  9997",
        "tle_line2": "2 67046  43.0003 134.6676 0001554 263.1828 346.6758 15.88369491  1557"
      },
      "geometry": {
        "type": "Point",
        "coordinates": [
          95.14885912439465,
          -29.99878634264676
        ]
      }
    },
    {
      "type": "Feature",
      "properties": {
        "norad_id": 67047,
        "name": "STARLINK-35779",
        "group": "last-30-days",
        "lat": -28.641231297142195,
        "lon": 97.54519184922108,
        "alt_km": 310.4057943767639,
        "timestamp": "2025-12-20T16:47:35.026802+00:00",
        "meta_object_name": "STARLINK-35779",
        "meta_object_id": "2025-294T",
        "meta_epoch": "2025-12-20T12:00:02.000160",
        "meta_mean_motion": 15.88404321,
        "meta_eccentricity": 0.0001599,
        "meta_inclination": 43.0001,
        "meta_ra_of_asc_node": 134.6617,
        "meta_arg_of_pericenter": 262.7621,
        "meta_mean_anomaly": 349.5711,
        "meta_ephemeris_type": 0,
        "meta_classification_type": "U",
        "meta_norad_cat_id": 67047,
        "meta_element_set_no": 999,
        "meta_rev_at_epoch": 136,
        "meta_bstar": -0.00587,
        "meta_mean_motion_dot": -0.01462338,
        "meta_mean_motion_ddot": 0,
        "tle_line1": "1 67047U 25294T   25354.50002315 -.01462338  00000+0 -58700-2 0  9991",
        "tle_line2": "2 67047  43.0001 134.6617 0001599 262.7621 349.5711 15.88404321  1368"
      },
      "geometry": {
        "type": "Point",
        "coordinates": [
          97.54519184922108,
          -28.641231297142195
        ]
      }
    },
    {
      "type": "Feature",
      "properties": {
        "norad_id": 67048,
        "name": "STARLINK-35905",
        "group": "last-30-days",
        "lat": -27.602856593596584,
        "lon": 99.28991212736176,
        "alt_km": 310.27326836221437,
        "timestamp": "2025-12-20T16:47:35.026812+00:00",
        "meta_object_name": "STARLINK-35905",
        "meta_object_id": "2025-294U",
        "meta_epoch": "2025-12-20T12:00:02.000160",
        "meta_mean_motion": 15.88443747,
        "meta_eccentricity": 0.0001587,
        "meta_inclination": 43.0003,
        "meta_ra_of_asc_node": 134.657,
        "meta_arg_of_pericenter": 262.3997,
        "meta_mean_anomaly": 351.7674,
        "meta_ephemeris_type": 0,
        "meta_classification_type": "U",
        "meta_norad_cat_id": 67048,
        "meta_element_set_no": 999,
        "meta_rev_at_epoch": 147,
        "meta_bstar": -0.0058821,
        "meta_mean_motion_dot": -0.01467444,
        "meta_mean_motion_ddot": 0,
        "tle_line1": "1 67048U 25294U   25354.50002315 -.01467444  00000+0 -58821-2 0  9999",
        "tle_line2": "2 67048  43.0003 134.6570 0001587 262.3997 351.7674 15.88443747  1478"
      },
      "geometry": {
        "type": "Point",
        "coordinates": [
          99.28991212736176,
          -27.602856593596584
        ]
      }
    },
    {
      "type": "Feature",
      "properties": {
        "norad_id": 67049,
        "name": "STARLINK-35877",
        "group": "last-30-days",
        "lat": -26.245438762082184,
        "lon": 101.47029471271674,
        "alt_km": 310.05206249729144,
        "timestamp": "2025-12-20T16:47:35.026822+00:00",
        "meta_object_name": "STARLINK-35877",
        "meta_object_id": "2025-294V",
        "meta_epoch": "2025-12-20T12:00:02.000160",
        "meta_mean_motion": 15.88479318,
        "meta_eccentricity": 0.0001661,
        "meta_inclination": 43.0005,
        "meta_ra_of_asc_node": 134.651,
        "meta_arg_of_pericenter": 264.819,
        "meta_mean_anomaly": 351.7006,
        "meta_ephemeris_type": 0,
        "meta_classification_type": "U",
        "meta_norad_cat_id": 67049,
        "meta_element_set_no": 999,
        "meta_rev_at_epoch": 155,
        "meta_bstar": -0.0058966,
        "meta_mean_motion_dot": -0.01472941,
        "meta_mean_motion_ddot": 0,
        "tle_line1": "1 67049U 25294V   25354.50002315 -.01472941  00000+0 -58966-2 0  9998",
        "tle_line2": "2 67049  43.0005 134.6510 0001661 264.8190 351.7006 15.88479318  1551"
      },
      "geometry": {
        "type": "Point",
        "coordinates": [
          101.47029471271674,
          -26.245438762082184
        ]
      }
    },
    {
      "type": "Feature",
      "properties": {
        "norad_id": 67050,
        "name": "STARLINK-36078",
        "group": "last-30-days",
        "lat": -24.83653326842004,
        "lon": 103.62799082270433,
        "alt_km": 310.0019116502708,
        "timestamp": "2025-12-20T16:47:35.026832+00:00",
        "meta_object_name": "STARLINK-36078",
        "meta_object_id": "2025-294W",
        "meta_epoch": "2025-12-20T12:00:02.000160",
        "meta_mean_motion": 15.88515216,
        "meta_eccentricity": 0.0001532,
        "meta_inclination": 43.0003,
        "meta_ra_of_asc_node": 134.6451,
        "meta_arg_of_pericenter": 261.9701,
        "meta_mean_anomaly": 356.9352,
        "meta_ephemeris_type": 0,
        "meta_classification_type": "U",
        "meta_norad_cat_id": 67050,
        "meta_element_set_no": 999,
        "meta_rev_at_epoch": 147,
        "meta_bstar": -0.0059284,
        "meta_mean_motion_dot": -0.01481987,
        "meta_mean_motion_ddot": 0,
        "tle_line1": "1 67050U 25294W   25354.50002315 -.01481987  00000+0 -59284-2 0  9994",
        "tle_line2": "2 67050  43.0003 134.6451 0001532 261.9701 356.9352 15.88515216  1478"
      },
      "geometry": {
        "type": "Point",
        "coordinates": [
          103.62799082270433,
          -24.83653326842004
        ]
      }
    },
    {
      "type": "Feature",
      "properties": {
        "norad_id": 67051,
        "name": "STARLINK-35706",
        "group": "last-30-days",
        "lat": -23.392013980878207,
        "lon": 105.74396677534259,
        "alt_km": 309.807416863292,
        "timestamp": "2025-12-20T16:47:35.026842+00:00",
        "meta_object_name": "STARLINK-35706",
        "meta_object_id": "2025-294X",
        "meta_epoch": "2025-12-20T12:00:02.000160",
        "meta_mean_motion": 15.88548806,
        "meta_eccentricity": 0.0001576,
        "meta_inclination": 43.0004,
        "meta_ra_of_asc_node": 134.6389,
        "meta_arg_of_pericenter": 263.2511,
        "meta_mean_anomaly": 358.0488,
        "meta_ephemeris_type": 0,
        "meta_classification_type": "U",
        "meta_norad_cat_id": 67051,
        "meta_element_set_no": 999,
        "meta_rev_at_epoch": 155,
        "meta_bstar": -0.0059441,
        "meta_mean_motion_dot": -0.01487589,
        "meta_mean_motion_ddot": 0,
        "tle_line1": "1 67051U 25294X   25354.50002315 -.01487589  00000+0 -59441-2 0  9994",
        "tle_line2": "2 67051  43.0004 134.6389 0001576 263.2511 358.0488 15.88548806  1555"
      },
      "geometry": {
        "type": "Point",
        "coordinates": [
          105.74396677534259,
          -23.392013980878207
        ]
      }
    }
  ]
}